NORAD_CAT_ID,OBJECT_NAME,OBJECT_TYPE,EPOCH,MEAN_MOTION,ECCENTRICITY,INCLINATION,RA_OF_ASC_NODE,ARG_OF_PERICENTER,MEAN_ANOMALY,BSTAR,MEAN_MOTION_DOT,MEAN_MOTION_DDOT,TLE_LINE0,TLE_LINE1,TLE_LINE2,SEMIMAJOR_AXIS,PERIOD,APOGEE,PERIGEE,DECAYED
53970.0,STARLINK-4567,PAYLOAD,2023-10-30 18:42:37,15.08840998,0.0001613,53.2151,123.9376,94.063,266.0547,9.974e-05,1.3e-05,0.0,0 STARLINK-4567,1 53970U 22125G   23303.77959957  .00001300  00000-0  99740-4 0  9992,2 53970  53.2151 123.9376 0001613  94.0630 266.0547 15.08840998 59430,6917.877,95.437,540.858,538.626,0.0
53970.0,STARLINK-4567,PAYLOAD,2023-10-31 18:33:24,15.08841527,0.0001537,53.2167,119.4778,95.1269,264.9899,1.5915e-05,-3.5e-07,0.0,0 STARLINK-4567,1 53970U 22125G   23304.77320031 -.00000035  00000-0  15915-4 0  9995,2 53970  53.2167 119.4778 0001537  95.1269 264.9899 15.08841527 59647,6917.876,95.437,540.804,538.677,0.0
53970.0,STARLINK-4567,PAYLOAD,2023-10-31 21:44:10,15.08842231,0.0001508,53.2167,118.8825,96.9602,263.1562,4.4553e-05,4.21e-06,0.0,0 STARLINK-4567,1 53970U 22125G   23304.90567968  .00000421  00000-0  44553-4 0  9990,2 53970  53.2167 118.8825 0001508  96.9602 263.1562 15.08842231 59608,6917.874,95.437,540.782,538.695,0.0
53970.0,STARLINK-4567,PAYLOAD,2023-11-01 12:02:38,15.08840719,0.0001476,53.2162,116.2061,97.5674,262.5486,0.00014142,1.963e-05,0.0,0 STARLINK-4567,1 53970U 22125G   23305.50184026  .00001963  00000-0  14142-3 0  9999,2 53970  53.2162 116.2061 0001476  97.5674 262.5486 15.08840719 59693,6917.878,95.438,540.764,538.722,0.0
53970.0,STARLINK-4567,PAYLOAD,2023-11-01 18:24:11,15.08845946,0.0001376,53.2161,115.0177,90.1662,269.9487,0.0001837,2.637e-05,0.0,0 STARLINK-4567,1 53970U 22125G   23305.76679747  .00002637  00000-0  18370-3 0  9992,2 53970  53.2161 115.0177 0001376  90.1662 269.9487 15.08845946 59736,6917.862,95.437,540.679,538.775,0.0
53970.0,STARLINK-4567,PAYLOAD,2023-11-02 03:56:30,15.08841613,0.0001375,53.2168,113.232,86.5654,273.5495,0.00010961,1.457e-05,0.0,0 STARLINK-4567,1 53970U 22125G   23306.16423917  .00001457  00000-0  10961-3 0  9990,2 53970  53.2168 113.2320 0001375  86.5654 273.5495 15.08841613 59852,6917.875,95.437,540.692,538.789,0.0
53970.0,STARLINK-4567,PAYLOAD,2023-11-02 11:53:26,15.08838215,0.000183,53.2172,111.7486,120.787,239.3302,-3.4734e-07,-2.94e-06,0.0,0 STARLINK-4567,1 53970U 22125G   23306.49544151 -.00000294  00000-0 -34734-6 0  9997,2 53970  53.2172 111.7486 0001830 120.7870 239.3302 15.08838215 59840,6917.886,95.438,541.017,538.485,0.0
53970.0,STARLINK-4567,PAYLOAD,2023-11-02 16:39:35,15.08837933,0.0001493,53.2184,110.857,98.7384,261.3777,6.8263e-05,7.99e-06,0.0,0 STARLINK-4567,1 53970U 22125G   23306.69416428  .00000799  00000-0  68263-4 0  9994,2 53970  53.2184 110.8570 0001493  98.7384 261.3777 15.08837933 59933,6917.887,95.438,540.785,538.719,0.0
53970.0,STARLINK-4567,PAYLOAD,2023-11-02 21:25:44,15.08843452,0.0001679,53.2186,109.9639,117.0384,243.0779,6.5489e-05,7.54e-06,0.0,0 STARLINK-4567,1 53970U 22125G   23306.89287988  .00000754  00000-0  65489-4 0  9991,2 53970  53.2186 109.9639 0001679 117.0384 243.0779 15.08843452 59900,6917.87,95.437,540.896,538.573,0.0
53970.0,STARLINK-4567,PAYLOAD,2023-11-03 03:47:18,15.08830563,0.0001387,53.2167,108.7731,85.9252,274.1898,-2.2007e-05,-6.38e-06,0.0,0 STARLINK-4567,1 53970U 22125G   23307.15785057 -.00000638  00000-0 -22007-4 0  9993,2 53970  53.2167 108.7731 0001387  85.9252 274.1898 15.08830563 60001,6917.909,95.438,540.734,538.815,0.0
53970.0,STARLINK-4567,PAYLOAD,2023-11-03 13:19:36,15.08837909,0.0001377,53.2183,106.9888,92.0193,268.0957,-1.439e-05,-5.17e-06,0.0,0 STARLINK-4567,1 53970U 22125G   23307.55528670 -.00000517  00000-0 -14390-4 0  9995,2 53970  53.2183 106.9888 0001377  92.0193 268.0957 15.08837909 60003,6917.887,95.438,540.704,538.799,0.0
53970.0,STARLINK-4567,PAYLOAD,2023-11-03 19:41:08,15.08842814,0.0001337,53.2172,105.7991,87.3676,272.7469,3.2106e-05,2.23e-06,0.0,0 STARLINK-4567,1 53970U 22125G   23307.82024265  .00000223  00000-0  32106-4 0  9993,2 53970  53.2172 105.7991 0001337  87.3676 272.7469 15.08842814 60104,6917.872,95.437,540.662,538.812,0.0
53970.0,STARLINK-4567,PAYLOAD,2023-11-03 21:16:31,15.08845357,0.0001323,53.2172,105.5018,86.5357,273.5786,5.5838e-05,6.01e-06,0.0,0 STARLINK-4567,1 53970U 22125G   23307.88648049  .00000601  00000-0  55838-4 0  9998,2 53970  53.2172 105.5018 0001323  86.5357 273.5786 15.08845357 60054,6917.864,95.437,540.644,538.814,0.0
53970.0,STARLINK-4567,PAYLOAD,2023-11-04 14:45:47,15.08829619,0.0001398,53.2178,102.2307,82.6998,277.4153,5.7363e-05,6.25e-06,0.0,0 STARLINK-4567,1 53970U 22125G   23308.61513381  .00000625  00000-0  57363-4 0  9991,2 53970  53.2178 102.2307 0001398  82.6998 277.4153 15.08829619 60161,6917.912,95.438,540.744,538.81,0.0
53970.0,STARLINK-4567,PAYLOAD,2023-11-04 17:56:33,15.08841392,0.0001332,53.2178,101.6357,93.4607,266.6537,9.3174e-05,1.195e-05,0.0,0 STARLINK-4567,1 53970U 22125G   23308.74760592  .00001195  00000-0  93174-4 0  9996,2 53970  53.2178 101.6357 0001332  93.4607 266.6537 15.08841392 60184,6917.876,95.437,540.663,538.82,0.0
53970.0,STARLINK-4567,PAYLOAD,2023-11-05 03:28:51,15.08845705,0.0001317,53.2179,99.8513,84.8031,275.3111,0.00010657,1.409e-05,0.0,0 STARLINK-4567,1 53970U 22125G   23309.14504348  .00001409  00000-0  10657-3 0  9998,2 53970  53.2179  99.8513 0001317  84.8031 275.3111 15.08845705 60306,6917.863,95.437,540.639,538.817,0.0
53970.0,STARLINK-4567,PAYLOAD,2023-11-05 14:36:33,15.088496,0.00014,53.2166,97.7701,83.223,276.8921,0.00030805,4.619e-05,0.0,0 STARLINK-4567,1 53970U 22125G   23309.60872242  .00004619  00000-0  30805-3 0  9993,2 53970  53.2166  97.7701 0001400  83.2230 276.8921 15.08849600 60319,6917.851,95.437,540.685,538.748,0.0
53970.0,STARLINK-4567,PAYLOAD,2023-11-05 17:47:19,15.0886015,0.0001443,53.2166,97.1757,83.4624,276.6532,0.00050914,7.829e-05,0.0,0 STARLINK-4567,1 53970U 22125G   23309.74119915  .00007829  00000-0  50914-3 0  9998,2 53970  53.2166  97.1757 0001443  83.4624 276.6532 15.08860150 60331,6917.819,95.436,540.682,538.686,0.0
53970.0,STARLINK-4567,PAYLOAD,2023-11-06 03:19:38,15.08861757,0.0001526,53.2166,95.3911,92.1345,267.9822,0.00050485,7.761e-05,0.0,0 STARLINK-4567,1 53970U 22125G   23310.13863507  .00007761  00000-0  50485-3 0  9994,2 53970  53.2166  95.3911 0001526  92.1345 267.9822 15.08861757 60454,6917.814,95.436,540.735,538.623,0.0
53970.0,STARLINK-4567,PAYLOAD,2023-11-06 14:27:21,15.08810681,0.0002169,53.2169,93.31,43.8107,316.3057,-0.00054321,-8.916e-05,0.0,0 STARLINK-4567,1 53970U 22125G   23310.60233718 -.00008916  00000-0 -54321-3 0  9999,2 53970  53.2169  93.3100 0002169  43.8107 316.3057 15.08810681 60468,6917.97,95.439,541.336,538.334,0.0
53970.0,STARLINK-4567,PAYLOAD,2023-11-06 16:02:44,15.08799578,9.27e-05,53.2155,93.0124,89.3856,270.7242,-0.00099203,-0.00016023,0.0,0 STARLINK-4567,1 53970U 22125G   23310.66857391 -.00016023  00000-0 -99203-3 0  9990,2 53970  53.2155  93.0124 0000927  89.3856 270.7242 15.08799578 60530,6918.004,95.44,540.51,539.228,0.0
53970.0,STARLINK-4567,PAYLOAD,2023-11-07 03:10:27,15.08802001,9.13e-05,53.2156,90.9318,92.5597,267.55,-0.00057946,-9.488e-05,0.0,0 STARLINK-4567,1 53970U 22125G   23311.13226371 -.00009488  00000-0 -57946-3 0  9996,2 53970  53.2156  90.9318 0000913  92.5597 267.5500 15.08802001 60600,6917.997,95.44,540.493,539.23,0.0
53970.0,STARLINK-4567,PAYLOAD,2023-11-07 14:18:10,15.08807856,9.54e-05,53.2158,88.8519,63.2594,296.8496,0.00027062,4.018e-05,0.0,0 STARLINK-4567,1 53970U 22125G   23311.59595393  .00004018  00000-0  27062-3 0  9997,2 53970  53.2158  88.8519 0000954  63.2594 296.8496 15.08807856 60611,6917.979,95.44,540.504,539.184,0.0
53970.0,STARLINK-4567,PAYLOAD,2023-11-07 15:53:33,15.08815923,7.77e-05,53.2163,88.553,90.7417,269.3664,0.00060465,9.342e-05,0.0,0 STARLINK-4567,1 53970U 22125G   23311.66219335  .00009342  00000-0  60465-3 0  9993,2 53970  53.2163  88.5530 0000777  90.7417 269.3664 15.08815923 60682,6917.954,95.439,540.357,539.281,0.0
53970.0,STARLINK-4567,PAYLOAD,2023-11-08 09:22:48,15.08856546,7.63e-05,53.2164,85.282,81.9397,278.1681,0.0015001,0.00023678,0.0,0 STARLINK-4567,1 53970U 22125G   23312.39083581  .00023678  00000-0  15001-2 0  9999,2 53970  53.2164  85.2820 0000763  81.9397 278.1681 15.08856546 60798,6917.83,95.437,540.223,539.167,0.0
53970.0,STARLINK-4567,PAYLOAD,2023-11-08 14:08:57,15.08873146,8.32e-05,53.216,84.3892,78.9767,281.1319,0.0017419,0.00027568,0.0,0 STARLINK-4567,1 53970U 22125G   23312.58955142  .00027568  00000-0  17419-2 0  9998,2 53970  53.2160  84.3892 0000832  78.9767 281.1319 15.08873146 60761,6917.779,95.435,540.22,539.069,0.0
53970.0,STARLINK-4567,PAYLOAD,2023-11-08 15:44:20,15.08877469,8.27e-05,53.216,84.0914,80.5127,279.5959,0.0018009,0.00028519,0.0,0 STARLINK-4567,1 53970U 22125G   23312.65578977  .00028519  00000-0  18009-2 0  9996,2 53970  53.2160  84.0914 0000827  80.5127 279.5959 15.08877469 60770,6917.766,95.435,540.203,539.059,0.0
53970.0,STARLINK-4567,PAYLOAD,2023-11-09 12:24:19,15.0887694,0.0001293,53.218,80.226,126.6527,233.4584,0.0011748,0.00018477,0.0,0 STARLINK-4567,1 53970U 22125G   23313.51689497  .00018477  00000-0  11748-2 0  9997,2 53970  53.2180  80.2260 0001293 126.6527 233.4584 15.08876940 60965,6917.767,95.435,540.527,538.738,0.0
53970.0,STARLINK-4567,PAYLOAD,2023-11-09 13:59:42,15.08875045,0.0001213,53.2181,79.9289,123.5906,236.5202,0.00088796,0.00013886,0.0,0 STARLINK-4567,1 53970U 22125G   23313.58313353  .00013886  00000-0  88796-3 0  9996,2 53970  53.2181  79.9289 0001213 123.5906 236.5202 15.08875045 60912,6917.773,95.435,540.477,538.799,0.0
53970.0,STARLINK-4567,PAYLOAD,2023-11-09 15:35:05,15.08878,9.42e-05,53.2178,79.6308,108.7274,251.382,0.00066832,0.00010375,0.0,0 STARLINK-4567,1 53970U 22125G   23313.64937193  .00010375  00000-0  66832-3 0  9994,2 53970  53.2178  79.6308 0000942 108.7274 251.3820 15.08878000 60924,6917.764,95.435,540.281,538.978,0.0
